{
    "links": {
        "self": "http://www.neowsapp.com/rest/v1/neo/3626687?api_key=iIulBulltgU6a56xZRHN4H3l9WmuAYTsLGpBGhQ2"
    },
    "id": "3626687",
    "neo_reference_id": "3626687",
    "name": "(2013 CW87)",
    "designation": "2013 CW87",
    "nasa_jpl_url": "http://ssd.jpl.nasa.gov/sbdb.cgi?sstr=3626687",
    "absolute_magnitude_h": 25.6,
    "estimated_diameter": {
        "kilometers": {
            "estimated_diameter_min": 0.0201629919,
            "estimated_diameter_max": 0.0450858206
        },
        "meters": {
            "estimated_diameter_min": 20.1629919443,
            "estimated_diameter_max": 45.0858206172
        },
        "miles": {
            "estimated_diameter_min": 0.0125286985,
            "estimated_diameter_max": 0.0280150214
        },
        "feet": {
            "estimated_diameter_min": 66.1515504905,
            "estimated_diameter_max": 147.9193637137
        }
    },
    "is_potentially_hazardous_asteroid": false,
    "close_approach_data": [
        {
            "close_approach_date": "1910-01-24",
            "close_approach_date_full": "1910-Jan-24 03:38",
            "epoch_date_close_approach": -1891455720000,
            "relative_velocity": {
                "kilometers_per_second": "3.4578690798",
                "kilometers_per_hour": "12448.3286873286",
                "miles_per_hour": "7734.9073446348"
            },
            "miss_distance": {
                "astronomical": "0.1021109502",
                "lunar": "39.7211596278",
                "kilometers": "15275580.653596074",
                "miles": "9491805.6772668612"
            },
            "orbiting_body": "Earth"
        },
        {
            "close_approach_date": "2011-01-14",
            "close_approach_date_full": "2011-Jan-14 04:09",
            "epoch_date_close_approach": 1294978140000,
            "relative_velocity": {
                "kilometers_per_second": "4.3170071893",
                "kilometers_per_hour": "15541.2258813597",
                "miles_per_hour": "9656.7133816704"
            },
            "miss_distance": {
                "astronomical": "0.06109883",
                "lunar": "23.76744487",
                "kilometers": "9140254.8274921",
                "miles": "5679490.98830698"
            },
            "orbiting_body": "Mars"
        },
        {
            "close_approach_date": "2013-02-04",
            "close_approach_date_full": "2013-Feb-04 12:06",
            "epoch_date_close_approach": 1359979560000,
            "relative_velocity": {
                "kilometers_per_second": "3.2686427393",
                "kilometers_per_hour": "11767.1138616451",
                "miles_per_hour": "7311.6269436427"
            },
            "miss_distance": {
                "astronomical": "0.0796023222",
                "lunar": "30.9653033358",
                "kilometers": "11908337.848173714",
                "miles": "7399498.0195726932"
            },
            "orbiting_body": "Earth"
        }
    ],
    "orbital_data": {
        "orbit_id": "4",
        "orbit_determination_date": "2017-04-06 08:46:51",
        "first_observation_date": "2013-02-08",
        "last_observation_date": "2013-02-13",
        "data_arc_in_days": 5,
        "observations_used": 11,
        "orbit_uncertainty": "8",
        "minimum_orbit_intersection": ".0784802",
        "jupiter_tisserand_invariant": "5.248",
        "epoch_osculation": "2456333.5",
        "eccentricity": ".1223357672231951",
        "semi_major_axis": "1.211418125053677",
        "inclination": "6.129916848098993",
        "ascending_node_longitude": "315.7435287011437",
        "orbital_period": "487.0118489733514",
        "perihelion_distance": "1.063218359297151",
        "perihelion_argument": "171.2345712982018",
        "aphelion_distance": "1.359617890810203",
        "perihelion_time": "2456318.237266934905",
        "mean_anomaly": "11.28223864576826",
        "mean_motion": ".7392017273479082",
        "equinox": "J2000",
        "orbit_class": {
            "orbit_class_type": "AMO",
            "orbit_class_description": "Near-Earth asteroid orbits similar to that of 1221 Amor",
            "orbit_class_range": "1.017 AU < q (perihelion) < 1.3 AU"
        }
    },
    "is_sentry_object": false
}